[{"OBJECT_NAME":"STARLINK-6253","OBJECT_ID":"2023-088AM","EPOCH":"2026-03-09T22:00:01.999584","MEAN_MOTION":15.07537854,"ECCENTRICITY":0.00020756,"INCLINATION":43.0012,"RA_OF_ASC_NODE":93.1892,"ARG_OF_PERICENTER":276.671,"MEAN_ANOMALY":108.0409,"EPHEMERIS_TYPE":0,"CLASSIFICATION_TYPE":"U","NORAD_CAT_ID":57083,"ELEMENT_SET_NO":999,"REV_AT_EPOCH":542,"BSTAR":0.0036323374,"MEAN_MOTION_DOT":0.00056362,"MEAN_MOTION_DDOT":0},{"OBJECT_NAME":"PEGASUS DEB","OBJECT_ID":"1994-029ADD","EPOCH":"2026-03-08T10:25:15.653280","MEAN_MOTION":14.68059496,"ECCENTRICITY":0.01955808,"INCLINATION":82.165,"RA_OF_ASC_NODE":108.7718,"ARG_OF_PERICENTER":24.3577,"MEAN_ANOMALY":336.6717,"EPHEMERIS_TYPE":0,"CLASSIFICATION_TYPE":"U","NORAD_CAT_ID":24996,"ELEMENT_SET_NO":999,"REV_AT_EPOCH":48270,"BSTAR":0.0033498842,"MEAN_MOTION_DOT":0.00025801,"MEAN_MOTION_DDOT":0}]
